{"type": "FeatureCollection", "features": [ {"type": "Feature", "properties": {"norad_id": 31228, "name": "FENGYUN 1C DEB", "group": "fengyun-1c-debris", "lat": 8.129034906896527, "lon": -105.76150792746583, "alt_km": 766.3571569340502, "timestamp": "2025-12-09T18:55:17.512948+00:00", "meta": {"OBJECT_NAME": "FENGYUN 1C DEB", "OBJECT_ID": "1999-025BLJ", "EPOCH": "2025-12-09T13:00:45.585792", "MEAN_MOTION": 14.36904693, "ECCENTRICITY": 0.00792366, "INCLINATION": 98.8684, "RA_OF_ASC_NODE": 255.2628, "ARG_OF_PERICENTER": 95.2738, "MEAN_ANOMALY": 81.1286, "EPHEMERIS_TYPE": 0, "CLASSIFICATION_TYPE": "U", "NORAD_CAT_ID": 31228, "ELEMENT_SET_NO": 999, "REV_AT_EPOCH": 97523, "BSTAR": 0.00083207464, "MEAN_MOTION_DOT": 2.506e-05, "MEAN_MOTION_DDOT": 0}, "tle": {"line1": "1 31228U 99025BLJ 25343.54219428  .00002506  00000+0  83207-3 0  9998", "line2": "2 31228  98.8684 255.2628 0079236  95.2738  81.1286 14.36904693975239"}}, "geometry": {"type": "Point", "coordinates": [-105.76150792746583, 8.129034906896527]}}, {"type": "Feature", "properties": {"norad_id": 31229, "name": "FENGYUN 1C DEB", "group": "fengyun-1c-debris", "lat": -33.27029409109774, "lon": 64.96246535797087, "alt_km": 789.9108217074499, "timestamp": "2025-12-09T18:55:17.512960+00:00", "meta": {"OBJECT_NAME": "FENGYUN 1C DEB", "OBJECT_ID": "1999-025BLK", "EPOCH": "2025-12-09T03:52:40.376352", "MEAN_MOTION": 14.21783414, "ECCENTRICITY": 0.00527704, "INCLINATION": 98.8673, "RA_OF_ASC_NODE": 58.4536, "ARG_OF_PERICENTER": 307.2168, "MEAN_ANOMALY": 52.42, "EPHEMERIS_TYPE": 0, "CLASSIFICATION_TYPE": "U", "NORAD_CAT_ID": 31229, "ELEMENT_SET_NO": 999, "REV_AT_EPOCH": 96033, "BSTAR": 0.0017086204, "MEAN_MOTION_DOT": 3.769e-05, "MEAN_MOTION_DDOT": 0}, "tle": {"line1": "1 31229U 99025BLK 25343.16157843  .00003769  00000+0  17086-2 0  9992", "line2": "2 31229  98.8673  58.4536 0052770 307.2168  52.4200 14.21783414960338"}}, "geometry": {"type": "Point", "coordinates": [64.96246535797087, -33.27029409109774]}}, {"type": "Feature", "properties": {"norad_id": 31231, "name": "FENGYUN 1C DEB", "group": "fengyun-1c-debris", "lat": 47.23230359576742, "lon": -27.643993928371934, "alt_km": 540.657993616338, "timestamp": "2025-12-09T18:55:17.512969+00:00", "meta": {"OBJECT_NAME": "FENGYUN 1C DEB", "OBJECT_ID": "1999-025BLM", "EPOCH": "2025-12-07T04:28:47.589888", "MEAN_MOTION": 14.75193183, "ECCENTRICITY": 0.01468739, "INCLINATION": 98.8605, "RA_OF_ASC_NODE": 139.7987, "ARG_OF_PERICENTER": 123.9175, "MEAN_ANOMALY": 237.6099, "EPHEMERIS_TYPE": 0, "CLASSIFICATION_TYPE": "U", "NORAD_CAT_ID": 31231, "ELEMENT_SET_NO": 999, "REV_AT_EPOCH": 62939, "BSTAR": 0.0055087948, "MEAN_MOTION_DOT": 0.00044548, "MEAN_MOTION_DDOT": 0}, "tle": {"line1": "1 31231U 99025BLM 25341.18666192  .00044548  00000+0  55088-2 0  9991", "line2": "2 31231  98.8605 139.7987 0146873 123.9175 237.6099 14.75193183629396"}}, "geometry": {"type": "Point", "coordinates": [-27.643993928371934, 47.23230359576742]}}, {"type": "Feature", "properties": {"norad_id": 31234, "name": "FENGYUN 1C DEB", "group": "fengyun-1c-debris", "lat": 74.76385986028914, "lon": -56.71490599515591, "alt_km": 907.9022289866716, "timestamp": "2025-12-09T18:55:17.512979+00:00", "meta": {"OBJECT_NAME": "FENGYUN 1C DEB", "OBJECT_ID": "1999-025BLQ", "EPOCH": "2025-12-08T16:58:03.836640", "MEAN_MOTION": 14.08010887, "ECCENTRICITY": 0.00729408, "INCLINATION": 98.7836, "RA_OF_ASC_NODE": 336.8196, "ARG_OF_PERICENTER": 238.3597, "MEAN_ANOMALY": 121.0443, "EPHEMERIS_TYPE": 0, "CLASSIFICATION_TYPE": "U", "NORAD_CAT_ID": 31234, "ELEMENT_SET_NO": 999, "REV_AT_EPOCH": 72663, "BSTAR": 0.00057434574, "MEAN_MOTION_DOT": 9.57e-06, "MEAN_MOTION_DDOT": 0}, "tle": {"line1": "1 31234U 99025BLQ 25342.70698885  .00000957  00000+0  57435-3 0  9992", "line2": "2 31234  98.7836 336.8196 0072940 238.3597 121.0443 14.08010887726637"}}, "geometry": {"type": "Point", "coordinates": [-56.71490599515591, 74.76385986028914]}}, {"type": "Feature", "properties": {"norad_id": 31235, "name": "FENGYUN 1C DEB", "group": "fengyun-1c-debris", "lat": -51.834769584469605, "lon": 143.11550475682074, "alt_km": 819.7202076022259, "timestamp": "2025-12-09T18:55:17.512989+00:00", "meta": {"OBJECT_NAME": "FENGYUN 1C DEB", "OBJECT_ID": "1999-025BLR", "EPOCH": "2025-12-09T15:46:44.269248", "MEAN_MOTION": 14.18551897, "ECCENTRICITY": 0.01796809, "INCLINATION": 98.4692, "RA_OF_ASC_NODE": 132.0623, "ARG_OF_PERICENTER": 31.0916, "MEAN_ANOMALY": 330.0747, "EPHEMERIS_TYPE": 0, "CLASSIFICATION_TYPE": "U", "NORAD_CAT_ID": 31235, "ELEMENT_SET_NO": 999, "REV_AT_EPOCH": 63123, "BSTAR": 0.0038656475, "MEAN_MOTION_DOT": 9.358e-05, "MEAN_MOTION_DDOT": 0}, "tle": {"line1": "1 31235U 99025BLR 25343.65745682  .00009358  00000+0  38656-2 0  9993", "line2": "2 31235  98.4692 132.0623 0179680  31.0916 330.0747 14.18551897631230"}}, "geometry": {"type": "Point", "coordinates": [143.11550475682074, -51.834769584469605]}}, {"type": "Feature", "properties": {"norad_id": 31236, "name": "FENGYUN 1C DEB", "group": "fengyun-1c-debris", "lat": 7.155065270590416, "lon": 120.34597788321972, "alt_km": 1047.50975453932, "timestamp": "2025-12-09T18:55:17.512999+00:00", "meta": {"OBJECT_NAME": "FENGYUN 1C DEB", "OBJECT_ID": "1999-025BLS", "EPOCH": "2025-12-08T03:59:52.265760", "MEAN_MOTION": 13.85721801, "ECCENTRICITY": 0.03144927, "INCLINATION": 98.5451, "RA_OF_ASC_NODE": 297.7823, "ARG_OF_PERICENTER": 59.175, "MEAN_ANOMALY": 303.9956, "EPHEMERIS_TYPE": 0, "CLASSIFICATION_TYPE": "U", "NORAD_CAT_ID": 31236, "ELEMENT_SET_NO": 999, "REV_AT_EPOCH": 60961, "BSTAR": 0.006018133, "MEAN_MOTION_DOT": 0.00010125, "MEAN_MOTION_DDOT": 0}, "tle": {"line1": "1 31236U 99025BLS 25342.16657715  .00010125  00000+0  60181-2 0  9990", "line2": "2 31236  98.5451 297.7823 0314492  59.1750 303.9956 13.85721801609610"}}, "geometry": {"type": "Point", "coordinates": [120.34597788321972, 7.155065270590416]}}, {"type": "Feature", "properties": {"norad_id": 31237, "name": "FENGYUN 1C DEB", "group": "fengyun-1c-debris", "lat": -25.912437834714268, "lon": -13.12729729316356, "alt_km": 734.1918345729018, "timestamp": "2025-12-09T18:55:17.513009+00:00", "meta": {"OBJECT_NAME": "FENGYUN 1C DEB", "OBJECT_ID": "1999-025BLT", "EPOCH": "2025-12-09T10:39:12.082176", "MEAN_MOTION": 14.31372452, "ECCENTRICITY": 0.00891876, "INCLINATION": 98.4538, "RA_OF_ASC_NODE": 342.3938, "ARG_OF_PERICENTER": 358.7159, "MEAN_ANOMALY": 1.3783, "EPHEMERIS_TYPE": 0, "CLASSIFICATION_TYPE": "U", "NORAD_CAT_ID": 31237, "ELEMENT_SET_NO": 999, "REV_AT_EPOCH": 97219, "BSTAR": 0.0010199919, "MEAN_MOTION_DOT": 2.782e-05, "MEAN_MOTION_DDOT": 0}, "tle": {"line1": "1 31237U 99025BLT 25343.44388984  .00002782  00000+0  10200-2 0  9999", "line2": "2 31237  98.4538 342.3938 0089187 358.7159   1.3783 14.31372452972190"}}, "geometry": {"type": "Point", "coordinates": [-13.12729729316356, -25.912437834714268]}}, {"type": "Feature", "properties": {"norad_id": 31239, "name": "FENGYUN 1C DEB", "group": "fengyun-1c-debris", "lat": 35.2692514264042, "lon": -27.450130331690442, "alt_km": 892.5281755914175, "timestamp": "2025-12-09T18:55:17.513018+00:00", "meta": {"OBJECT_NAME": "FENGYUN 1C DEB", "OBJECT_ID": "1999-025BLV", "EPOCH": "2025-12-09T10:57:59.615136", "MEAN_MOTION": 14.09855398, "ECCENTRICITY": 0.00491418, "INCLINATION": 98.7582, "RA_OF_ASC_NODE": 338.4865, "ARG_OF_PERICENTER": 207.4234, "MEAN_ANOMALY": 307.1401, "EPHEMERIS_TYPE": 0, "CLASSIFICATION_TYPE": "U", "NORAD_CAT_ID": 31239, "ELEMENT_SET_NO": 999, "REV_AT_EPOCH": 95965, "BSTAR": 0.00065085696, "MEAN_MOTION_DOT": 1.115e-05, "MEAN_MOTION_DDOT": 0}, "tle": {"line1": "1 31239U 99025BLV 25343.45693999  .00001115  00000+0  65086-3 0  9999", "line2": "2 31239  98.7582 338.4865 0049141 207.4234 307.1401 14.09855398959659"}}, "geometry": {"type": "Point", "coordinates": [-27.450130331690442, 35.2692514264042]}}, {"type": "Feature", "properties": {"norad_id": 31241, "name": "FENGYUN 1C DEB", "group": "fengyun-1c-debris", "lat": 74.97124537293962, "lon": -12.318402952550331, "alt_km": 753.4626095343092, "timestamp": "2025-12-09T18:55:17.513028+00:00", "meta": {"OBJECT_NAME": "FENGYUN 1C DEB", "OBJECT_ID": "1999-025BLX", "EPOCH": "2025-12-08T20:44:47.484672", "MEAN_MOTION": 14.38670905, "ECCENTRICITY": 0.0066726, "INCLINATION": 99.2345, "RA_OF_ASC_NODE": 129.3914, "ARG_OF_PERICENTER": 192.2722, "MEAN_ANOMALY": 167.684, "EPHEMERIS_TYPE": 0, "CLASSIFICATION_TYPE": "U", "NORAD_CAT_ID": 31241, "ELEMENT_SET_NO": 999, "REV_AT_EPOCH": 97635, "BSTAR": 0.00098189, "MEAN_MOTION_DOT": 3.04e-05, "MEAN_MOTION_DDOT": 0}, "tle": {"line1": "1 31241U 99025BLX 25342.86443848  .00003040  00000+0  98189-3 0  9991", "line2": "2 31241  99.2345 129.3914 0066726 192.2722 167.6840 14.38670905976351"}}, "geometry": {"type": "Point", "coordinates": [-12.318402952550331, 74.97124537293962]}}, {"type": "Feature", "properties": {"norad_id": 31243, "name": "FENGYUN 1C DEB", "group": "fengyun-1c-debris", "lat": 1.0613505109829648, "lon": 23.98178719624614, "alt_km": 919.6081760134903, "timestamp": "2025-12-09T18:55:17.513038+00:00", "meta": {"OBJECT_NAME": "FENGYUN 1C DEB", "OBJECT_ID": "1999-025BLZ", "EPOCH": "2025-12-09T08:40:37.935552", "MEAN_MOTION": 14.07155887, "ECCENTRICITY": 0.00660906, "INCLINATION": 98.7505, "RA_OF_ASC_NODE": 23.7321, "ARG_OF_PERICENTER": 177.6136, "MEAN_ANOMALY": 182.5362, "EPHEMERIS_TYPE": 0, "CLASSIFICATION_TYPE": "U", "NORAD_CAT_ID": 31243, "ELEMENT_SET_NO": 999, "REV_AT_EPOCH": 69260, "BSTAR": 0.0011549207, "MEAN_MOTION_DOT": 1.93e-05, "MEAN_MOTION_DDOT": 0}, "tle": {"line1": "1 31243U 99025BLZ 25343.36155018  .00001930  00000+0  11549-2 0  9998", "line2": "2 31243  98.7505  23.7321 0066090 177.6136 182.5362 14.07155887692605"}}, "geometry": {"type": "Point", "coordinates": [23.98178719624614, 1.0613505109829648]}}]}